[{"OBJECT_NAME":"STARLINK-34274","OBJECT_ID":"2025-126E","EPOCH":"2026-03-09T22:22:13.375200","MEAN_MOTION":14.98340525,"ECCENTRICITY":0.00025982,"INCLINATION":70.0035,"RA_OF_ASC_NODE":34.0316,"ARG_OF_PERICENTER":259.2463,"MEAN_ANOMALY":100.8404,"EPHEMERIS_TYPE":0,"CLASSIFICATION_TYPE":"U","NORAD_CAT_ID":64348,"ELEMENT_SET_NO":999,"REV_AT_EPOCH":4071,"BSTAR":0.00056129808,"MEAN_MOTION_DOT":6.612e-5,"MEAN_MOTION_DDOT":0},{"OBJECT_NAME":"COSMOS 2251 DEB","OBJECT_ID":"1993-036LH","EPOCH":"2026-03-09T22:01:19.578144","MEAN_MOTION":14.80785224,"ECCENTRICITY":0.00862249,"INCLINATION":74.0187,"RA_OF_ASC_NODE":230.5997,"ARG_OF_PERICENTER":329.6727,"MEAN_ANOMALY":156.0627,"EPHEMERIS_TYPE":0,"CLASSIFICATION_TYPE":"U","NORAD_CAT_ID":34136,"ELEMENT_SET_NO":999,"REV_AT_EPOCH":91300,"BSTAR":0.00043945141,"MEAN_MOTION_DOT":3.573e-5,"MEAN_MOTION_DDOT":0}]
